STARLINK-34629          
1 64790C 25150A   26185.03381944  .00016639  00000+0  13939-2 0  1851
2 64790  70.0004 200.9990 0004020 254.8517 221.1392 14.98335892    19
STARLINK-34697          
1 64791C 25150B   26185.03104167  .00020465  00000+0  17141-2 0  1853
2 64791  70.0003 201.0239 0004132 262.2279 177.2226 14.98337469    18
STARLINK-34632          
1 64792C 25150C   26184.91993056  .00070058  00000+0  58717-2 0  1849
2 64792  70.0001 201.3365 0004190 262.8446 161.6187 14.98288145    15
STARLINK-34693          
1 64793C 25150D   26184.93451389  .00072296  00000+0  60544-2 0  1847
2 64793  69.9997 201.5412 0004098 262.8603 127.7047 14.98318766    15
STARLINK-34666          
1 64794C 25150E   26185.01159722  .00033270  00000+0  27877-2 0  1856
2 64794  70.0001 201.3522 0003976 262.3885 184.6731 14.98318225    18
STARLINK-34567          
1 64795C 25150F   26184.92131944  .00070538  00000+0  59110-2 0  1844
2 64795  69.9999 201.2265 0004366 263.7931  11.5903 14.98293473    12
STARLINK-34646          
1 64796C 25150G   26184.97062500  .00054015  00000+0  45261-2 0  1845
2 64796  70.0000 201.3482 0004016 264.1583  51.1082 14.98305287    16
STARLINK-34641          
1 64797C 25150H   26185.01784722  .00029142  00000+0  24409-2 0  1854
2 64797  70.0003 201.1066 0003123 267.5330  55.7701 14.98336582    11
STARLINK-34649          
1 64798C 25150J   26184.94354167  .00059660  00000+0  49996-2 0  1847
2 64798  69.9999 201.4229 0004111 265.0109 265.1036 14.98298980    19
STARLINK-34662          
1 64799C 25150K   26185.03173611  .00016225  00000+0  13594-2 0  1858
2 64799  70.0002 200.9513 0003971 263.4602 246.3341 14.98330831    13
STARLINK-34660          
1 64800C 25150L   26185.01854167  .00029166  00000+0  24437-2 0  1857
2 64800  70.0003 201.0817 0004180 264.0568  85.5455 14.98320693    11
STARLINK-34604          
1 64801C 25150M   26185.04006944  .00017897  00000+0  14995-2 0  1859
2 64801  70.0004 201.1005 0003580 265.9240 132.2247 14.98329099    11
STARLINK-34658          
1 64802C 25150N   26184.94145833  .00066900  00000+0  56059-2 0  1844
2 64802  69.9998 201.4971 0003774 259.6859 191.6664 14.98298998    12
STARLINK-34620          
1 64803C 25150P   26184.97548611  .00049612  00000+0  41566-2 0  1847
2 64803  69.9999 201.4113 0004099 264.8347   9.1092 14.98312930    14
STARLINK-34633          
1 64804C 25150Q   26185.00256944  .00033026  00000+0  27674-2 0  1855
2 64804  70.0001 201.1675 0004115 263.2502 314.3156 14.98315517    13
STARLINK-34624          
1 64805C 25150R   26185.00534722  .00035514  00000+0  29748-2 0  1857
2 64805  70.0000 201.2895 0003974 263.8525 216.9677 14.98328918    15
STARLINK-34664          
1 64806C 25150S   26185.00812500  .00035619  00000+0  29850-2 0  1851
2 64806  70.0001 200.9798 0003750 264.9500 140.9767 14.98311273    14
STARLINK-34663          
1 64807C 25150T   26185.00118056  .00034905  00000+0  29248-2 0  1855
2 64807  70.0002 201.2256 0003686 262.0001 263.9230 14.98316275    10
STARLINK-34696          
1 64808C 25150U   26184.76715278 -.00018879  00000+0 -15824-2 0  1845
2 64808  70.0001 201.8375 0004227 266.0154  55.4394 14.98329246    10
STARLINK-34675          
1 64809C 25150V   26184.98868056  .00041619  00000+0  34874-2 0  1845
2 64809  70.0003 201.2076 0004133 264.0070 239.5527 14.98311781    14
STARLINK-34608          
1 64810C 25150W   26184.93104167  .00067829  00000+0  56853-2 0  1840
2 64810  70.0001 201.2526 0003991 266.8000  15.9743 14.98286960    14
STARLINK-34669          
1 64811C 25150X   26184.88451389  .00064881  00000+0  54375-2 0  1848
2 64811  70.0001 201.3394 0003992 264.4026 150.0111 14.98293885    16
STARLINK-34644          
1 64812C 25150Y   26184.98729167  .00048657  00000+0  40769-2 0  1847
2 64812  70.0000 201.2865 0003914 261.0434 121.5904 14.98310721    10
STARLINK-34685          
1 64813C 25150Z   26184.93312500  .00072896  00000+0  61116-2 0  1843
2 64813  70.0000 201.5668 0003313 269.2441  91.3552 14.98276836    17
STARLINK-34668          
1 64814C 25150AA  26184.98659722  .00039475  00000+0  33094-2 0  1849
2 64814  70.0001 201.1304 0003635 267.3706 291.6681 14.98295041    19
STARLINK-34667          
1 64815C 25150AB  26185.03312500  .00021961  00000+0  18398-2 0  1859
2 64815  70.0004 201.1129 0003245 264.9417  94.8927 14.98331510    15
STARLINK-34723          
1 64842C 25152A   26184.88173611  .00034990  00000+0  24295-2 0  1849
2 64842  97.2857  38.3477 0002304  91.1294  17.0819 15.05636129    16
STARLINK-34725          
1 64843C 25152B   26184.92479167  .00061606  00000+0  42781-2 0  1844
2 64843  97.2854  38.4331 0002571  91.0448 340.3928 15.05618138    13
STARLINK-34709          
1 64844C 25152C   26184.95951389 -.00008264  00000+0 -57359-3 0  1840
2 64844  97.2854  38.4540 0002853  93.8652 150.6664 15.05671244    12
STARLINK-34706          
1 64845C 25152D   26184.91229167  .00055057  00000+0  38231-2 0  1846
2 64845  97.2855  38.3840 0002489  92.2166 196.4984 15.05623226    14
STARLINK-34736          
1 64846C 25152E   26184.92826389  .00064459  00000+0  44760-2 0  1847
2 64846  97.2856  38.4746 0001822  90.5783 119.6438 15.05619561    16
STARLINK-34746          
1 64847C 25152F   26185.01229167  .00054888  00000+0  38106-2 0  1853
2 64847  97.2855  38.5494 0002403  90.2807 185.1078 15.05631318    19
STARLINK-34748          
1 64848C 25152G   26184.99840278  .00068804  00000+0  47770-2 0  1841
2 64848  97.2859  38.5675 0002469  90.6504 184.4961 15.05621987    19
STARLINK-34756          
1 64849C 25152H   26185.00256944  .00065721  00000+0  45631-2 0  1856
2 64849  97.2848  38.5504 0002153  93.0683 114.6495 15.05623523    19
STARLINK-34757          
1 64850C 25152J   26184.91368056  .00058695  00000+0  40755-2 0  1848
2 64850  97.2852  38.4287 0002582  92.0489 309.1829 15.05623387    12
STARLINK-34722          
1 64851C 25152K   26184.93590278  .00073790  00000+0  51237-2 0  1844
2 64851  97.2854  38.4251 0002635  91.0224  10.5915 15.05614936    10
STARLINK-34564          
1 64852C 25152L   26184.86993056  .00015299  00000+0  10625-2 0  1844
2 64852  97.2850  38.4024 0002147  91.0467 103.1959 15.05640451    10
STARLINK-34676          
1 64853C 25152M   26184.97895833  .00072916  00000+0  50622-2 0  1841
2 64853  97.2854  38.4585 0002871  81.3087 238.5473 15.05620764    10
STARLINK-34682          
1 64854C 25152N   26184.94006944  .00055624  00000+0  38625-2 0  1842
2 64854  97.2856  38.5364 0002317  79.5426 284.6083 15.05623217    15
STARLINK-34631          
1 64855C 25152P   26184.91437500  .00060133  00000+0  41748-2 0  1847
2 64855  97.2851  38.4370 0002092  88.6412 331.2238 15.05628727    15
STARLINK-34578          
1 64856C 25152Q   26185.04354167  .00052503  00000+0  36447-2 0  1853
2 64856  97.2857  38.6508 0002094  94.1539 140.4734 15.05635850    17
STARLINK-34683          
1 64857C 25152R   26184.98243056  .00069370  00000+0  48167-2 0  1841
2 64857  97.2851  38.5320 0001894  84.0881  44.5473 15.05619889    16
STARLINK-34654          
1 64858C 25152S   26184.92201389  .00062261  00000+0  43235-2 0  1842
2 64858  97.2860  38.5139 0002160  92.1046 189.2426 15.05619120    18
STARLINK-34575          
1 64859C 25152T   26184.91576389  .00046151  00000+0  32048-2 0  1847
2 64859  97.2855  38.5286 0001940  94.1420 183.3406 15.05627926    15
STARLINK-34570          
1 64860C 25152U   26184.91298611  .00050577  00000+0  35118-2 0  1846
2 64860  97.2855  38.4008 0003103  85.5137 221.9713 15.05626779    15
STARLINK-34651          
1 64861C 25152V   26184.88104167  .00009704  00000+0  67364-3 0  1840
2 64861  97.2854  38.4144 0002440  87.2765 122.1299 15.05656064    16
STARLINK-34684          
1 64862C 25152W   26184.92548611  .00063729  00000+0  44256-2 0  1843
2 64862  97.2857  38.5010 0001615  95.5307 129.6264 15.05618222    18
STARLINK-34690          
1 64863C 25152X   26184.99006944  .00073547  00000+0  51064-2 0  1843
2 64863  97.2859  38.5794 0001845  92.7529 167.2471 15.05619921    15
STARLINK-34628          
1 64864C 25152Y   26185.01506944  .00054571  00000+0  37888-2 0  1858
2 64864  97.2858  38.5724 0001883  93.0303 242.3958 15.05630094    13
STARLINK-34544          
1 64865C 25152Z   26184.91368056  .00058401  00000+0  40555-2 0  1847
2 64865  97.2857  38.4942 0001919  92.2987  98.9065 15.05621552    16
STARLINK-34647          
1 64904C 25157A   26184.90534722  .00037751  00000+0  11150-2 0  1844
2 64904  53.1581 164.9418 0001300  95.7529 130.2794 15.34382567    13
STARLINK-34273          
1 64905C 25157B   26184.86437500  .00053071  00000+0  15677-2 0  1847
2 64905  53.1577 165.0378 0001236 102.0364 304.0657 15.34369084    11
STARLINK-34713          
1 64906C 25157C   26184.92409722  .00033609  00000+0  99282-3 0  1840
2 64906  53.1586 165.1734 0001275  95.7970  71.0452 15.34379394    12
STARLINK-34712          
1 64907C 25157D   26185.01368056 -.00007834  00000+0 -23133-3 0  1852
2 64907  53.1581 162.9642 0001429  88.1372  42.4790 15.34409644    13
STARLINK-34702          
1 64908C 25157E   26185.01090278 -.00002139  00000+0 -68757-4 0  1856
2 64908  53.1584 164.6370 0001365  91.8586 258.9416 15.31721039    12
STARLINK-34687          
1 64909C 25157F   26184.96020833  .00025005  00000+0  73847-3 0  1849
2 64909  53.1585 165.0235 0001336  86.9324 267.8835 15.34391521    18
STARLINK-34642          
1 64910C 25157G   26184.95187500  .00018253  00000+0  58680-3 0  1840
2 64910  53.1582 164.6631 0001380  97.4509  56.4360 15.31701650    13
STARLINK-34718          
1 64911C 25157H   26184.89006944  .00050678  00000+0  14977-2 0  1843
2 64911  53.1577 165.3772 0001259  98.7478 216.8276 15.34356539    19
STARLINK-34711          
1 64912C 25157J   26184.93104167  .00033791  00000+0  99799-3 0  1848
2 64912  53.1583 164.7959 0001281  98.6876 280.9827 15.34385257    16
